GUOWANG TEST OBJECT A
1 69320U 26120A   26172.81697494  .00008673  00000+0  23140-3 0  9993
2 69320  55.0017   6.9033 0011359 337.7695  22.2839 15.38939558  3409
GUOWANG TEST OBJECT B
1 69321U 26120B   26176.19319351  .00014698  00000+0  38505-3 0  9997
2 69321  54.9979 351.6908 0011280 351.4880   8.5955 15.38922359  3922
GUOWANG TEST OBJECT C
1 69322U 26120C   26175.21033880  .00011605  00000+0  29858-3 0  9996
2 69322  54.9992 356.0264 0011910 355.5868   4.5054 15.39699135  3776
GUOWANG TEST OBJECT D
1 69323U 26120D   26175.21522844  .00008472  00000+0  22813-3 0  9992
2 69323  54.9978 356.0543 0012200   2.1203 357.9875 15.38678599  3778
GUOWANG OBJECT A
1 69572U 26137A   26175.62604037  .00000074  00000+0  17259-3 0  9994
2 69572  50.0003 225.7306 0012385 251.0733 108.8824 13.91753886  1052
GUOWANG OBJECT B
1 69573U 26137B   26174.83590509  .00000001  00000+0  11551-3 0  9994
2 69573  49.9996 228.8805 0012217 246.1111 113.8509 13.91680979   954
GUOWANG OBJECT C
1 69574U 26137C   26174.83534770  .00000021  00000+0  13047-3 0  9997
2 69574  49.9966 228.8693 0011748 247.5683 112.3972 13.91926738   958
GUOWANG OBJECT D
1 69575U 26137D   26174.83505179 -.00000015  00000+0  10293-3 0  9993
2 69575  49.9953 228.8664 0011266 246.4044 113.5673 13.91996521   955
GUOWANG OBJECT E
1 69576U 26137E   26174.83494681 -.00000011  00000+0  10580-3 0  9994
2 69576  50.0010 228.8817 0011091 249.4781 110.4929 13.92014313   951
GUOWANG OBJECT F
1 69577U 26137F   26174.83436825 -.00000012  00000+0  10474-3 0  9994
2 69577  50.0004 228.8772 0010556 250.9734 109.0022 13.92131150   952
GUOWANG OBJECT G
1 69578U 26137G   26174.83417053 -.00000033  00000+0  88725-4 0  9995
2 69578  49.9954 228.8625 0010447 250.5281 109.4490 13.92175617   952
GUOWANG OBJECT H
1 69579U 26137H   26174.83390860  .00000014  00000+0  12465-3 0  9997
2 69579  49.9988 228.8698 0010139 253.8068 106.1716 13.92228504   956
GUOWANG OBJECT J
1 69580U 26137J   26174.83323464  .00000006  00000+0  11839-3 0  9990
2 69580  49.9969 228.8612 0009557 250.1334 109.8536 13.92366636   950
