ECHOSTAR 10
1 28935U 06003A   26176.14672823 -.00000046  00000+0  00000+0 0  9990
2 28935   0.0210 327.1768 0001775 137.0733 111.6427  1.00272380 74545
ECHOSTAR 11
1 33207U 08035A   26176.14681492 -.00000049  00000+0  00000+0 0  9990
2 33207   1.0260  84.1079 0002730 353.8225 138.4046  1.00271812 51290
ECHOSTAR 14
1 36499U 10010A   26176.11919691  .00000009  00000+0  00000+0 0  9999
2 36499   0.0302 276.5264 0002600 181.9915  98.7621  1.00274893 46638
ECHOSTAR 15
1 36792U 10034A   26176.11919691  .00000009  00000+0  00000+0 0  9991
2 36792   0.0103 354.3573 0002222  82.3329 120.6656  1.00271956 58402
ECHOSTAR 17
1 38551U 12035A   26175.02475346 -.00000069  00000+0  00000+0 0  9999
2 38551   0.0189  13.0207 0002096  78.8601  82.1088  1.00272260 51139
ECHOSTAR 16
1 39008U 12065A   26175.99558615 -.00000273  00000+0  00000+0 0  9994
2 39008   0.0167   9.6075 0002151  81.9245 118.5190  1.00270956 49728
ECHOSTAR 18
1 41592U 16039B   26175.16331442 -.00000275  00000+0  00000+0 0  9998
2 41592   0.0186  13.0400 0001652  80.3658 176.3306  1.00273094 36696
ECHOSTAR 19
1 41893U 16079A   26175.01364089 -.00000132  00000+0  00000+0 0  9995
2 41893   0.0189  18.2068 0001422  72.4413  89.3327  1.00272559 34774
ECHOSTAR 23
1 42070U 17014A   26175.19477375  .00000000  00000+0  00000+0 0  9998
2 42070   0.0252  12.8786 0002173  78.6615 141.0289  1.00270099 33999
ECHOSTAR 21
1 42749U 17032A   26176.17056734  .00000074  00000+0  00000+0 0  9993
2 42749   1.7703 356.2515 0002563  85.7447 262.9753  1.00272724 33177
SES-11 (ECHOSTAR 105)
1 42967U 17063A   26176.14776824 -.00000080  00000+0  00000+0 0  9993
2 42967   0.0348 300.6587 0002928 150.9568 129.9261  1.00272939 31804
JUPITER 3 (ECHOSTAR 24)
1 57479U 23108A   26174.50986215  .00000000  00000+0  00000+0 0  9990
2 57479   0.0216   7.2703 0001176  85.1014 267.6418  1.00268913 10719
ECHOSTAR 25
1 68126U 26045A   26176.14672823 -.00000047  00000+0  00000+0 0  9995
2 68126   0.0150   8.2114 0001825  79.6602 128.2301  1.00271511  1076
