INMARSAT 3-F1
1 23839U 96020A   26176.14802824 -.00000066  00000+0  00000+0 0  9994
2 23839  10.6169  46.5609 0003822  64.2039 112.2286  0.99978032110336
INMARSAT 3-F2
1 24307U 96053A   26174.76077458 -.00000303  00000+0  00000+0 0  9998
2 24307   9.8711  53.8690 0006515  36.0978 238.8301  1.00001315108987
INMARSAT 3-F3
1 24674U 96070A   26174.82102530  .00000130  00000+0  00000+0 0  9998
2 24674  10.3319  49.5894 0003134  37.2361 156.3639  0.99985595107970
INMARSAT 3-F5
1 25153U 98006B   26176.08586431 -.00000290  00000+0  00000+0 0  9996
2 25153   9.7108  53.1828 0004325  34.7192 162.2648  1.00273531103971
INMARSAT 4-F1
1 28628U 05009A   26175.91861014  .00000037  00000+0  00000+0 0  9999
2 28628   5.1788  42.7747 0002906  51.8601 327.2385  1.00272399 77755
INMARSAT 4-F2
1 28899U 05044A   26175.98301796 -.00000256  00000+0  00000+0 0  9995
2 28899   5.1055  43.6925 0003240  39.9506 326.8574  1.00272215 75607
INMARSAT 4-F3
1 33278U 08039A   26174.67723374 -.00000138  00000+0  00000+0 0  9993
2 33278   4.2975  31.6417 0002639  64.6132 321.3927  1.00272135 46611
INMARSAT 5-F1
1 39476U 13073A   26175.01645716  .00000034  00000+0  00000+0 0  9999
2 39476   0.0175  27.2031 0000642 334.6145 338.9064  1.00273060 45648
INMARSAT 5-F2
1 40384U 15005A   26175.08828105 -.00000278  00000+0  00000+0 0  9999
2 40384   0.0185  17.6357 0000403 305.3812 285.9979  1.00272018 41064
INMARSAT 5-F3
1 40882U 15042A   26175.20598162  .00000057  00000+0  00000+0 0  9998
2 40882   0.0191  18.9514 0000332  65.9268  81.2411  1.00269975 39645
INMARSAT 5-F4
1 42698U 17025A   26174.98377984  .00000082  00000+0  00000+0 0  9997
2 42698   0.0032  91.0109 0000399 309.4233 282.3621  1.00270664 33344
INMARSAT GX5
1 44801U 19080B   26176.17065399  .00000084  00000+0  00000+0 0  9997
2 44801   0.0399  22.9056 0002419  80.9603 241.8789  1.00271555  6861
INMARSAT 6-F1
1 50319U 21128A   26175.97114457 -.00000162  00000+0  00000+0 0  9999
2 50319   0.0175 329.0681 0000185 104.8260 272.5920  1.00270381 16339
