INTELSAT 902 (IS-902)
1 26900U 01039A   26176.15852061 -.00000279  00000+0  00000+0 0  9997
2 26900   6.1364  71.6864 0004220  22.5602 186.0184  1.00272034 90776
INTELSAT 904 (IS-904)
1 27380U 02007A   26176.19917273 -.00000222  00000+0  00000+0 0  9995
2 27380   6.9401  69.0905 0006533   9.6551 234.8017  1.00273402 51846
INTELSAT 905 (IS-905)
1 27438U 02027A   26174.78686591  .00000095  00000+0  00000+0 0  9997
2 27438   6.7705  69.7228 0004118  25.1578 323.1299  1.00273149 51425
GALAXY 3C (G-3C)
1 27445U 02030A   26176.03978844 -.00000146  00000+0  00000+0 0  9992
2 27445   3.7528  77.8806 0001934  27.0363  87.7469  1.00272136 46578
INTELSAT 906 (IS-906)
1 27513U 02041A   26176.18122740  .00000017  00000+0  00000+0 0  9998
2 27513   5.8222  72.8229 0004258   5.8574 324.0266  1.00271821 87108
GALAXY 13 (HORIZONS-1)
1 27954U 03044A   26175.18128603  .00000139  00000+0  00000+0 0  9999
2 27954   1.4366  83.7739 0002107   4.2110  99.6267  1.00274159 46642
INTELSAT 10-02
1 28358U 04022A   26175.02761910 -.00000004  00000+0  00000+0 0  9994
2 28358   0.0222 290.2426 0000318 232.3282 118.5529  1.00269986 80621
GALAXY 28 (G-28)
1 28702U 05022A   26176.17953027 -.00000193  00000+0  00000+0 0  9996
2 28702   3.3184  78.8344 0002295  13.2261 218.8075  1.00271115 52058
GALAXY 16 (G-16)
1 29236U 06023A   26176.14889492 -.00000117  00000+0  00000+0 0  9998
2 29236   0.0420 138.4961 0002861 302.2598 147.1245  1.00272158 73053
GALAXY 17 (G-17)
1 31307U 07016B   26176.15166825 -.00000199  00000+0  00000+0 0  9992
2 31307   2.9923  79.8060 0004534  15.7957 147.2863  1.00271763 69880
INTELSAT 11 (IS-11)
1 32253U 07044B   26175.94434948 -.00000019  00000+0  00000+0 0  9995
2 32253   3.5859  78.5824 0002898  84.2607 181.9419  0.99048039 68521
GALAXY 18 (G-18)
1 32951U 08024A   26175.23881476  .00000032  00000+0  00000+0 0  9997
2 32951   0.0181 329.9123 0003052 125.8975 139.5670  1.00273802 45922
GALAXY 19 (G-19)
1 33376U 08045A   26176.14932824 -.00000130  00000+0  00000+0 0  9997
2 33376   0.0450 260.6023 0002873 202.5982 126.8539  1.00272232 64980
INTELSAT 14 (IS-14)
1 36097U 09064A   26176.15956061 -.00000264  00000+0  00000+0 0  9990
2 36097   0.0184   8.2049 0002657  87.7304 189.8020  1.00270395 60687
INTELSAT 15 (IS-15)
1 36106U 09067A   26175.97140457 -.00000176  00000+0  00000+0 0  9999
2 36106   0.0151  21.3402 0002460  75.4753 251.1575  1.00271794 41305
INTELSAT 16 (IS-16)
1 36397U 10006A   26176.15340160 -.00000235  00000+0  00000+0 0  9996
2 36397   0.0100  20.8909 0002375  88.4314 142.9912  1.00271146 59738
INTELSAT 17 (IS-17)
1 37238U 10065B   26176.01066830  .00000008  00000+0  00000+0 0  9997
2 37238   0.0401 151.5922 0002666 301.2048 250.1876  1.00270688 53327
INTELSAT 28 (IS-28)
1 37392U 11016A   26176.20828447 -.00000217  00000+0  00000+0 0  9999
2 37392   1.8272  82.5342 0003975  12.0150 222.0494  1.00270619 53369
INTELSAT 18 (IS-18)
1 37834U 11056A   26176.13289566  .00000062  00000+0  00000+0 0  9996
2 37834   0.0194 290.4334 0002025 166.4754  44.1967  1.00272555 53891
INTELSAT 22 (IS-22)
1 38098U 12011A   26176.03289008  .00000000  00000+0  00000+0 0  9993
2 38098   0.0332  48.7344 0001822  79.0280 229.3611  1.00270615  7268
INTELSAT 19 (IS-19)
1 38356U 12030A   26175.19905834 -.00000049  00000+0  00000+0 0  9993
2 38356   0.0166 357.7130 0003299 102.9463  49.3620  1.00273171 50522
INTELSAT 20 (IS-20)
1 38740U 12043A   26175.87197581  .00000000  00000+0  00000+0 0  9997
2 38740   0.0375  69.0879 0002338 110.0778 116.2550  1.00271269 50821
INTELSAT 21 (IS-21)
1 38749U 12045A   26176.15704727 -.00000275  00000+0  00000+0 0  9991
2 38749   0.0211  65.5976 0001771  42.2671 163.9705  1.00270968 50608
INTELSAT 23 (IS-23)
1 38867U 12057A   26176.15800062 -.00000275  00000+0  00000+0 0  9994
2 38867   0.0151   9.7735 0000095 155.3887 112.0078  1.00272002 50034
INTELSAT 30 (IS-30)
1 40271U 14062A   26176.14967492 -.00000141  00000+0  00000+0 0  9996
2 40271   0.0274  54.2798 0001487 340.3838 197.4546  1.00270562  6873
INTELSAT 34 (IS-34)
1 40874U 15039A   26176.15756727 -.00000276  00000+0  00000+0 0  9997
2 40874   0.0096   8.4114 0000478  12.0602 254.0522  1.00270198 39716
INTELSAT 31 (IS-31)
1 41581U 16035A   26176.14967492 -.00000141  00000+0  00000+0 0  9993
2 41581   0.0127 292.2322 0000679 327.6488 332.2376  1.00270780 36766
INTELSAT 36 (IS-36)
1 41747U 16053A   26176.18209405 -.00000015  00000+0  00000+0 0  9994
2 41747   0.0128  20.9268 0002042 321.7510  64.7168  1.00272521 36034
INTELSAT 32E (IS-32E)
1 41945U 17007B   26176.15999396  .00000000  00000+0  00000+0 0  9999
2 41945   0.0263  12.3082 0000328 342.9005 292.5044  1.00267463 34303
INTELSAT 35E (IS-35E)
1 42818U 17041A   26176.17307280  .00000000  00000+0  00000+0 0  9994
2 42818   0.0243   8.0577 0002379  86.9446 206.1333  1.00269597 32898
INTELSAT 37E (IS-37E)
1 42950U 17059A   26176.16493397  .00000000  00000+0  00000+0 0  9994
2 42950   0.0260  15.0600 0003092 104.1814 195.4311  1.00268807 32141
AZERSPACE 2 (IS-38)
1 43632U 18074A   26176.17741404  .00000146  00000+0  00000+0 0  9997
2 43632   0.0035  82.5969 0001587  10.3273 289.3716  1.00272596 28529
INTELSAT 39 (IS-39)
1 44476U 19049B   26175.96691691  .00000043  00000+0  00000+0 0  9991
2 44476   0.0066  29.2524 0000944 320.4307 333.4657  1.00271609 25205
GALAXY 30 (G-30)
1 46114U 20056C   26175.23825740  .00000044  00000+0  00000+0 0  9997
2 46114   0.0116  48.6374 0002203  40.4727 144.0438  1.00270568 21364
GALAXY 33 (G-33)
1 54026U 22128A   26176.14216903  .00000089  00000+0  00000+0 0  9995
2 54026   0.0142 350.9869 0002018  98.4402 102.0406  1.00270822 13823
GALAXY 34 (G-34)
1 54027U 22128B   26174.32035351  .00000000  00000+0  00000+0 0  9993
2 54027   0.0203   0.4191 0001793 105.3742 152.0255  1.00267852 13973
GALAXY 31 (G-31)
1 54243U 22153A   26176.12475457  .00000000  00000+0  00000+0 0  9996
2 54243   0.0172   2.5644 0001511  93.8237 100.7977  1.00272384  7219
GALAXY 32 (G-32)
1 54244U 22153B   26175.22367264 -.00000167  00000+0  00000+0 0  9998
2 54244   0.0097   2.1596 0002133  41.7877 217.9513  1.00271380 13210
GALAXY 35 (G-35)
1 54741U 22170A   26176.15010824 -.00000153  00000+0  00000+0 0  9994
2 54741   0.0146 309.3921 0002121 142.0946 142.7336  1.00271509 12973
GALAXY 36 (G-36)
1 54742U 22170B   26176.15088825 -.00000176  00000+0  00000+0 0  9996
2 54742   0.0343 132.5365 0002829 314.9705 151.1100  1.00271784 12854
INTELSAT 40E (IS-40E)
1 56174U 23052A   26175.22367264  .00000000  00000+0  00000+0 0  9996
2 56174   0.0194  27.5373 0002464  97.0318 137.3298  1.00269583 11896
GALAXY 37 (G-37)
1 57493U 23112A   26175.95392100  .00000057  00000+0  00000+0 0  9997
2 57493   0.0160  31.7708 0002245  61.6422  36.1021  1.00273244 10622
