LYNK TOWER 4
1 55034U 23001AB  26176.13986943  .00008832  00000+0  27490-3 0  9993
2 55034  97.3199 234.9856 0010069  93.8015 266.4379 15.33477635193044
LYNK TOWER 3
1 55046U 23001AP  26176.16268338  .00013653  00000+0  38506-3 0  9997
2 55046  97.3199 236.3687 0009358  93.1871 267.0444 15.36479178193134
LYNK TOWER 5
1 59121U 24043Z   26176.10474750  .00006533  00000+0  22190-3 0  9994
2 59121  97.5637 313.7517 0010302 212.9710 147.0889 15.30791986128256
LYNK TOWER 6
1 59123U 24043AB  26175.13579745  .00004935  00000+0  16611-3 0  9993
2 59123  97.5602 312.2653 0009401 212.0388 148.0282 15.31226357128091
