SKYSAT-A
1 39418U 13066C   26176.12752602  .00002893  00000+0  16675-3 0  9997
2 39418  97.3814 225.2717 0019688 287.9556  71.9529 15.13014167689688
SKYSAT-B
1 40072U 14037D   26175.11845173  .00001038  00000+0  11974-3 0  9995
2 40072  98.3840 134.4786 0004212 251.7206 108.3550 14.88042402646991
SKYSAT-C1
1 41601U 16040C   26176.03214708  .00009889  00000+0  28038-3 0  9997
2 41601  96.9566 207.3269 0002752  42.5631 317.5827 15.36420055559071
SKYSAT-C4
1 41771U 16058B   26176.02112240  .00018357  00000+0  34275-3 0  9991
2 41771  96.9176 197.4653 0001938 139.7950 220.3446 15.48811540546687
SKYSAT-C5
1 41772U 16058C   26176.05950598  .00008147  00000+0  24544-3 0  9995
2 41772  97.0471 216.3485 0001047 233.3226 126.7922 15.34570645544959
SKYSAT-C2
1 41773U 16058D   26176.04584200  .00013569  00000+0  31753-3 0  9992
2 41773  97.0172 197.8453 0004027  53.8507 306.3113 15.42232769546269
SKYSAT-C3
1 41774U 16058E   26176.07039601  .00025486  00000+0  41170-3 0  9991
2 41774  96.9009 206.6140 0001237 114.3829 245.7554 15.52850947547338
SKYSAT-C11
1 42987U 17068A   26175.95689786  .00030994  00000+0  41023-3 0  9998
2 42987  97.4354 325.1286 0000507 120.5956 239.5349 15.58262904484453
SKYSAT-C10
1 42988U 17068B   26175.13856235  .00007932  00000+0  23797-3 0  9998
2 42988  97.4508 312.0542 0001154 103.6982 256.4389 15.34737978483425
SKYSAT-C9
1 42989U 17068C   26175.11925487  .00012180  00000+0  29003-3 0  9990
2 42989  97.4427 313.0357 0009564 111.4507 248.7761 15.41711307483822
SKYSAT-C8
1 42990U 17068D   26175.09931891  .00009105  00000+0  25309-3 0  9993
2 42990  97.4524 311.8407 0001386  95.7828 264.3575 15.37092162483371
SKYSAT-C7
1 42991U 17068E   26176.19988272  .00011967  00000+0  33178-3 0  9993
2 42991  97.4535 313.9462 0007103  83.4452 276.7600 15.37070823483600
SKYSAT-C6
1 42992U 17068F   26175.12556420  .00006875  00000+0  21096-3 0  9990
2 42992  97.4567 312.8004 0005186 132.1780 227.9904 15.34065078483384
SKYSAT-C12
1 43797U 18099AR  26176.10494501  .00020598  00000+0  37978-3 0  9993
2 43797  96.9258 199.0244 0006142 116.7576 243.4305 15.49133279423088
FLOCK 4Q-16
1 58271U 23174R   26174.23919034  .00025680  00000+0  46635-3 0  9998
2 58271  97.3829 262.4873 0006984 139.1251 221.0525 15.49527794146511
FLOCK 4Q-11
1 58273U 23174T   26176.15494435  .00028852  00000+0  51584-3 0  9999
2 58273  97.3873 265.0605 0007114 130.6102 229.5769 15.49948134146823
FLOCK 4Q-28
1 58280U 23174AA  26176.15347368  .00034097  00000+0  49733-3 0  9990
2 58280  97.3884 267.6126 0006413 123.8712 236.3154 15.55596914146984
FLOCK 4Q-27
1 58282U 23174AC  26176.22120772  .00037103  00000+0  54162-3 0  9991
2 58282  97.3812 267.1054 0005681 124.6822 235.4969 15.55562588147007
FLOCK 4Q-29
1 58304U 23174BA  26176.18884203  .00118754  00000+0  16000-2 0  9997
2 58304  97.3928 268.2178 0004760 121.6911 238.4809 15.57415426147008
FLOCK 4Q-35
1 58309U 23174BF  26176.18858720  .00039543  00000+0  53155-3 0  9998
2 58309  97.3880 268.5802 0006008 127.8806 232.2993 15.57780057147051
FLOCK 4Q-7
1 58318U 23174BQ  26176.18028770  .00043555  00000+0  62322-3 0  9996
2 58318  97.3918 267.9422 0006188 114.4523 245.7378 15.56071678146990
FLOCK 4Q-2
1 58320U 23174BS  26176.20396247  .00028123  00000+0  50313-3 0  9990
2 58320  97.3836 264.8343 0006615 111.6667 248.5289 15.49939280146843
FLOCK 4Q-9
1 58322U 23174BU  26176.16186439  .00036695  00000+0  64680-3 0  9992
2 58322  97.3864 264.8812 0007602 114.5029 245.7016 15.50301370146828
FLOCK 4Q-4
1 58327U 23174BZ  26176.15794022  .00026288  00000+0  48626-3 0  9998
2 58327  97.3827 264.0468 0007190 132.1925 227.9937 15.48994714146791
FLOCK 4Q-13
1 58328U 23174CA  26176.18178429  .00025889  00000+0  43080-3 0  9994
2 58328  97.4003 267.2318 0007363 117.0028 243.1977 15.51996740146919
FLOCK 4BE-18
1 60480U 24149N   26176.19270166  .00020305  00000+0  47624-3 0  9997
2 60480  97.3730 260.0066 0003599 203.3282 156.7803 15.42090342103548
FLOCK 4BE-7
1 60481U 24149P   26176.14308389  .00024846  00000+0  61113-3 0  9995
2 60481  97.3759 259.2807 0002816 203.3714 156.7405 15.40613417103476
FLOCK 4BE-36
1 60486U 24149U   26176.15971978  .00019427  00000+0  44305-3 0  9994
2 60486  97.3747 260.6845 0003033 215.9651 144.1393 15.42943343103582
FLOCK 4BE-25
1 60487U 24149V   26175.17536029  .00012582  00000+0  32795-3 0  9995
2 60487  97.3798 258.3736 0002043 191.3883 168.7316 15.38988603103317
FLOCK 4BE-31
1 60488U 24149W   26176.18346069  .00024176  00000+0  52474-3 0  9999
2 60488  97.3793 261.5885 0002185 204.0800 156.0346 15.44374783103613
FLOCK 4BE-20
1 60489U 24149X   26176.18319147  .00016304  00000+0  43449-3 0  9993
2 60489  97.3697 258.2469 0003217 212.7855 147.3191 15.38242456103447
FLOCK 4BE-23
1 60490U 24149Y   26176.17543550  .00015427  00000+0  41654-3 0  9992
2 60490  97.3780 258.6199 0002688 216.7923 143.3137 15.37850756103428
FLOCK 4BE-17
1 60492U 24149AA  26176.14860671  .00018090  00000+0  45508-3 0  9998
2 60492  97.3772 259.5815 0002874 201.7289 158.3835 15.39991179103486
FLOCK 4BE-22
1 60494U 24149AC  26176.18791884  .00019504  00000+0  46838-3 0  9991
2 60494  97.3735 259.8253 0003027 216.5916 143.5124 15.41387230103531
FLOCK 4BE-34
1 60495U 24149AD  26175.16640842  .00014590  00000+0  35175-3 0  9998
2 60495  97.3781 259.6212 0002689 229.2728 130.8286 15.41332675103408
FLOCK 4BE-32
1 60497U 24149AF  26176.16844758  .00020651  00000+0  47932-3 0  9992
2 60497  97.3721 260.1822 0003134 219.1369 140.9652 15.42402436103563
FLOCK 4BE-30
1 60499U 24149AH  26176.15977522  .00176730  00000+0  22724-2 0  9990
2 60499  97.3778 261.9558 0005224 224.7180 135.3655 15.58467781103019
FLOCK 4BE-11
1 60501U 24149AK  26176.15883228  .00021118  00000+0  47688-3 0  9999
2 60501  97.3704 260.4119 0003403 220.2898 139.8098 15.43219217103588
FLOCK 4BE-24
1 60505U 24149AP  26176.14483685  .00023692  00000+0  53237-3 0  9991
2 60505  97.3718 260.6553 0003289 235.9380 124.1556 15.43345151103596
FLOCK 4BE-29
1 60509U 24149AT  26176.15020786  .00020244  00000+0  43986-3 0  9995
2 60509  97.3809 262.1433 0001769 236.7377 123.3702 15.44380591103649
FLOCK 4BE-2
1 60511U 24149AV  26176.17739730  .00069212  00000+0  10824-2 0  9998
2 60511  97.3835 263.7040 0004096 224.5223 135.5701 15.53530944103747
FLOCK 4BE-13
1 60512U 24149AW  26176.13790575  .00016847  00000+0  39573-3 0  9998
2 60512  97.3722 260.6323 0003422 223.0050 137.0930 15.42084564103591
FLOCK 4BE-27
1 60513U 24149AX  26176.15006176  .00010849  00000+0  32615-3 0  9994
2 60513  97.3826 258.0052 0002349 269.5837  90.5136 15.34573275103361
FLOCK 4BE-9
1 60514U 24149AY  26176.14262639  .00018145  00000+0  44148-3 0  9993
2 60514  97.3794 260.4919 0001761 241.4834 118.6235 15.41009956103548
FLOCK 4BE-6
1 60516U 24149BA  26176.17773109  .00016801  00000+0  42594-3 0  9997
2 60516  97.3792 259.8705 0002384 246.3970 113.7026 15.39772641103505
FLOCK 4BE-14
1 60517U 24149BB  26175.18016198  .00017433  00000+0  42176-3 0  9994
2 60517  97.3694 259.0075 0003377 253.7545 106.3331 15.41185662103402
FLOCK 4BE-1
1 60518U 24149BC  26176.16166125  .00020984  00000+0  47995-3 0  9999
2 60518  97.3782 261.3038 0003172 247.5523 112.5389 15.42839143103601
FLOCK 4BE-28
1 60519U 24149BD  26176.16392538  .00021502  00000+0  45474-3 0  9996
2 60519  97.3746 262.0551 0003298 242.6812 117.4102 15.45161764103670
FLOCK 4BE-5
1 60559U 24149CV  26176.14736463  .00016876  00000+0  41785-3 0  9996
2 60559  97.3843 260.2244 0002178 244.8372 115.2649 15.40492087103506
FLOCK 4BE-3
1 60561U 24149CX  26176.19484839  .00016060  00000+0  38151-3 0  9999
2 60561  97.3699 260.1851 0003141 237.1128 122.9817 15.41757287103572
FLOCK 4BE-19
1 60563U 24149CZ  26176.03063686  .00027542  00000+0  58965-3 0  9999
2 60563  97.3748 261.5926 0003681 246.9416 113.1445 15.44750007103636
FLOCK 4G-8
1 62613U 25009E   26176.19594295  .00011505  00000+0  40011-3 0  9990
2 62613  97.4009 258.1671 0002527 283.6441  76.4518 15.29876162 80144
FLOCK 4G-13
1 62621U 25009N   26176.18186568  .00094352  00000+0  19272-2 0  9993
2 62621  97.3957 259.5939 0004499 244.1669 115.9116 15.45812546 80237
FLOCK 4G-9
1 62622U 25009P   26176.19621919  .00010304  00000+0  37768-3 0  9995
2 62622  97.3962 257.0864 0003087 301.7770  58.3169 15.28178556 80087
FLOCK 4G-7
1 62624U 25009R   26176.17473062  .00010679  00000+0  37631-3 0  9993
2 62624  97.3947 257.4465 0001000 292.0930  68.0204 15.29467066 80127
FLOCK 4G-12
1 62625U 25009S   26176.16892543  .00012771  00000+0  45102-3 0  9999
2 62625  97.4025 257.9716 0002587 278.6126  81.4821 15.29347565 80123
FLOCK 4G-11
1 62629U 25009W   26176.15524829  .00011830  00000+0  41624-3 0  9991
2 62629  97.3924 257.5395 0001088 298.3683  61.7448 15.29487943 80137
FLOCK 4G-26
1 62633U 25009AA  26176.17109823  .00013693  00000+0  47915-3 0  9999
2 62633  97.4020 258.1274 0001891 264.0457  96.0568 15.29632332 80132
FLOCK 4G-28
1 62634U 25009AB  26175.16221769  .00007865  00000+0  23460-3 0  9995
2 62634  97.4025 259.7376 0000204 257.9665 102.1555 15.34921133 80150
FLOCK 4G-20
1 62636U 25009AD  26175.17710726  .00111896  00000+0  16506-2 0  9996
2 62636  97.3866 259.8262 0004258 231.6958 128.3913 15.54981497 80201
FLOCK 4G-24
1 62637U 25009AE  26176.18664914  .00011432  00000+0  39612-3 0  9995
2 62637  97.4026 258.4360 0001720 239.0901 121.0170 15.29996002 80155
FLOCK 4G-3
1 62639U 25009AG  26176.17324992  .00012944  00000+0  45510-3 0  9998
2 62639  97.4028 258.1458 0001302 252.6520 107.4578 15.29489308 80121
FLOCK 4G-27
1 62641U 25009AJ  26176.19208395  .00011691  00000+0  41209-3 0  9990
2 62641  97.3939 257.5388 0000621 260.6115  99.5055 15.29433721 80120
FLOCK 4G-29
1 62642U 25009AK  26175.19700324  .00008029  00000+0  28337-3 0  9997
2 62642  97.4022 257.1347 0001406 250.6204 109.4885 15.29500336 79976
FLOCK 4G-22
1 62645U 25009AN  26176.19537052  .00010911  00000+0  38525-3 0  9990
2 62645  97.4010 258.1694 0000998 232.7924 127.3226 15.29395002 80148
FLOCK 4G-25
1 62646U 25009AP  26176.17209037  .00012744  00000+0  44650-3 0  9990
2 62646  97.4018 258.2162 0000455 233.1666 126.9532 15.29609696 80146
FLOCK 4G-23
1 62647U 25009AQ  26175.15874131  .00038523  00000+0  12028-2 0  9997
2 62647  97.3930 256.8232 0001843 201.0500 159.0667 15.33091191 79991
FLOCK 4G-34
1 62650U 25009AT  26176.17358669  .00011607  00000+0  40948-3 0  9994
2 62650  97.3965 257.7249 0000317 227.0360 133.0854 15.29406650 80131
FLOCK 4G-21
1 62651U 25009AU  26176.19270855  .00042205  00000+0  13816-2 0  9998
2 62651  97.3996 258.6590 0001242 259.8167 100.2934 15.31552723 80187
FLOCK 4G-31
1 62652U 25009AV  26175.21937442  .00008599  00000+0  30629-3 0  9993
2 62652  97.3968 256.7526 0000204  78.4036 281.7227 15.29177515 79987
FLOCK 4G-4
1 62659U 25009BC  26175.22065615  .00033754  00000+0  11362-2 0  9998
2 62659  97.3950 256.5050 0002587 259.7690 100.3259 15.30699784137582
FLOCK 4G-6
1 62660U 25009BD  26176.19545507  .00010593  00000+0  37137-3 0  9995
2 62660  97.3945 257.5698 0001777 313.8866  46.2227 15.29636480137725
FLOCK 4G-2
1 62661U 25009BE  26176.19344381  .00011405  00000+0  39568-3 0  9996
2 62661  97.4010 258.1813 0002551 299.9162  60.1825 15.29955339137759
FLOCK 4G-5
1 62663U 25009BG  26176.19610566  .00009604  00000+0  32754-3 0  9997
2 62663  97.4030 258.5615 0001877 272.1557  87.9469 15.30562333 80161
FLOCK 4G-1
1 62666U 25009BK  26176.17646492  .00012399  00000+0  43199-3 0  9995
2 62666  97.4024 258.1441 0002616 293.3679  66.7286 15.29794973 80136
FLOCK 4G-14
1 62667U 25009BL  26175.22016847  .00009262  00000+0  32817-3 0  9996
2 62667  97.4025 257.0025 0002766 292.4428  67.6519 15.29324393 79976
FLOCK 4G-10
1 62670U 25009BP  26175.16708353  .00010118  00000+0  35711-3 0  9991
2 62670  97.3925 256.2718 0002916 320.7800  39.3228 15.29426942137605
FLOCK 4G-36
1 62675U 25009BU  26176.14264315  .00010848  00000+0  38251-3 0  9992
2 62675  97.4016 257.8427 0003023 294.1696  65.9228 15.29437708 80113
FLOCK 4G-15
1 62678U 25009BX  26176.15071788  .00011405  00000+0  40105-3 0  9997
2 62678  97.4022 257.9905 0003130 287.8868  72.2030 15.29513966137761
FLOCK 4G-30
1 62679U 25009BY  26176.14061964  .00031630  00000+0  10087-2 0  9999
2 62679  97.3922 257.4210 0002176 265.1776  94.9217 15.32457584137765
FLOCK 4G-18
1 62680U 25009BZ  26176.19812602  .00045805  00000+0  15324-2 0  9997
2 62680  97.4013 257.8995 0004162 285.6730  74.4052 15.30824404137764
FLOCK 4G-17
1 62681U 25009CA  26175.19826034  .00008840  00000+0  31012-3 0  9992
2 62681  97.3925 256.5332 0003200 315.9867  44.1119 15.29661360137628
FLOCK 4G-33
1 62685U 25009CE  26176.18526654  .00008835  00000+0  35100-3 0  9997
2 62685  97.3946 255.9631 0003979 309.9887  50.1001 15.25546704 80026
FLOCK 4H-1
1 66704U 25276AQ  26176.14303377  .00006695  00000+0  30826-3 0  9992
2 66704  97.4176 249.7027 0000460 314.7771  45.3426 15.20629084 31645
FLOCK 4H-2
1 66705U 25276AR  26176.18608481  .00006428  00000+0  29383-3 0  9991
2 66705  97.4175 249.7868 0000393  58.2196 301.9078 15.20897003 31657
FLOCK 4H-3
1 66706U 25276AS  26175.17711098  .00004919  00000+0  23150-3 0  9998
2 66706  97.4242 248.7269 0003337   0.4770 359.6468 15.20005062 31485
FLOCK 4H-4
1 66707U 25276AT  26176.13196993  .00006726  00000+0  31722-3 0  9999
2 66707  97.4228 249.5450 0003860 354.6165   5.5027 15.19794930 31625
FLOCK 4H-5
1 66708U 25276AU  26176.13599920  .00006204  00000+0  28550-3 0  9993
2 66708  97.4180 249.7159 0000793  85.6240 274.5086 15.20679188 31642
FLOCK 4H-6
1 66709U 25276AV  26176.17801000  .00006395  00000+0  29679-3 0  9997
2 66709  97.4228 249.7964 0001833 325.7328  34.3789 15.20374836 31645
FLOCK 4H-7
1 66710U 25276AW  26176.15677742  .00007217  00000+0  33676-3 0  9997
2 66710  97.4189 249.5510 0002504  38.0256 322.1156 15.20140187 31633
FLOCK 4H-8
1 66711U 25276AX  26176.14906519  .00007623  00000+0  35447-3 0  9993
2 66711  97.4226 249.6793 0003149  13.9216 346.2106 15.20241662 31636
FLOCK 4H-9
1 66712U 25276AY  26176.16681097  .00007446  00000+0  34337-3 0  9997
2 66712  97.4218 249.7847 0002089 332.8488  27.2638 15.20539412 31645
FLOCK 4H-10
1 66713U 25276AZ  26176.18355566  .00006728  00000+0  31615-3 0  9997
2 66713  97.4190 249.5356 0003789 355.6258   4.4943 15.19920559 31633
FLOCK 4H-11
1 66714U 25276BA  26176.18296205  .00016646  00000+0  71375-3 0  9999
2 66714  97.4198 250.0345 0002142  17.5567 342.5743 15.22813724 31662
FLOCK 4H-12
1 66715U 25276BB  26175.16710044  .00005519  00000+0  25524-3 0  9991
2 66715  97.4190 248.7433 0000821 341.9476  18.1730 15.20555775 31807
FLOCK 4H-13
1 66716U 25276BC  26176.19211009  .00004761  00000+0  21963-3 0  9994
2 66716  97.4222 249.9130 0000465 131.2512 228.8763 15.20711490 31653
FLOCK 4H-14
1 66717U 25276BD  26176.15832760  .00007557  00000+0  34260-3 0  9994
2 66717  97.4208 249.9178 0000567 127.6777 232.4510 15.21122957 30908
FLOCK 4H-15
1 66718U 25276BE  26176.14804883  .00006734  00000+0  31892-3 0  9993
2 66718  97.4221 249.5073 0003972  10.8715 349.2605 15.19649988 31629
FLOCK 4H-16
1 66719U 25276BF  26175.99256345  .00006563  00000+0  30864-3 0  9998
2 66719  97.4236 249.4526 0003694 358.4630   1.6593 15.19905271 31609
FLOCK 4H-18
1 66721U 25276BH  26176.19548757  .00006844  00000+0  32212-3 0  9996
2 66721  97.4179 249.4826 0003857  23.9552 336.1862 15.19855104 31636
FLOCK 4H-19
1 66722U 25276BJ  26176.07907078  .00006155  00000+0  27999-3 0  9990
2 66722  97.4180 249.7942 0000580 189.9249 170.1975 15.21081853 30935
FLOCK 4H-20
1 66723U 25276BK  26176.14895319  .00006704  00000+0  30340-3 0  9997
2 66723  97.4219 249.9548 0001079 261.5724  98.5389 15.21221651 30903
FLOCK 4H-21
1 66724U 25276BL  26176.17489562  .00005837  00000+0  26777-3 0  9995
2 66724  97.4183 249.8256 0000870 264.4873  95.6264 15.20811998 30902
FLOCK 4H-22
1 66725U 25276BM  26176.14676872  .00007619  00000+0  35401-3 0  9999
2 66725  97.4174 249.5270 0002761  34.3967 325.7446 15.20268574 31631
FLOCK 4H-23
1 66726U 25276BN  26176.19456374  .00006699  00000+0  31559-3 0  9995
2 66726  97.4243 249.6534 0003531 347.9266  12.1884 15.19837064 31631
FLOCK 4H-24
1 66727U 25276BP  26176.18074569  .00006656  00000+0  31263-3 0  9992
2 66727  97.4237 249.6668 0003582   7.8296 352.2994 15.19938918 31634
FLOCK 4H-25
1 66728U 25276BQ  26176.19225937  .00006127  00000+0  28156-3 0  9991
2 66728  97.4193 249.8336 0001040 120.9608 239.1729 15.20729175 30937
FLOCK 4H-26
1 66729U 25276BR  26175.15705967  .00005257  00000+0  24962-3 0  9997
2 66729  97.4192 248.4627 0004363   4.7538 355.3737 15.19657470 31473
FLOCK 4H-27
1 66730U 25276BS  26176.15465962  .00006971  00000+0  32175-3 0  9997
2 66730  97.4170 249.6618 0001003  96.8625 263.2725 15.20532081 31646
FLOCK 4H-28
1 66731U 25276BT  26176.14109007  .00006715  00000+0  31730-3 0  9994
2 66731  97.4182 249.4054 0003949   5.7797 354.3483 15.19727748 31627
FLOCK 4H-29
1 66732U 25276BU  26175.20432911  .00005565  00000+0  26303-3 0  9996
2 66732  97.4170 248.4931 0003342  26.9984 333.1425 15.19795770 31483
FLOCK 4H-30
1 66733U 25276BV  26176.18545509  .00006550  00000+0  30780-3 0  9992
2 66733  97.4232 249.6448 0003774   5.2954 354.8321 15.19929705 31634
FLOCK 4H-31
1 66734U 25276BW  26176.13768023  .00006581  00000+0  31119-3 0  9997
2 66734  97.4171 249.3809 0003561  16.7649 343.3703 15.19711935 31627
FLOCK 4H-32
1 66735U 25276BX  26176.19300339  .00006482  00000+0  30550-3 0  9994
2 66735  97.4226 249.6133 0004034   0.2884 359.8352 15.19831717 31631
FLOCK 4H-33
1 66736U 25276BY  26176.16605627  .00006027  00000+0  27506-3 0  9992
2 66736  97.4224 249.9466 0000801 239.6190 120.4966 15.20974978 31652
FLOCK 4H-34
1 66737U 25276BZ  26176.14824934  .00006910  00000+0  31832-3 0  9993
2 66737  97.4238 249.8587 0000812 270.3073  89.8069 15.20602128 30897
FLOCK 4H-35
1 66738U 25276CA  26175.20435163  .00004789  00000+0  22100-3 0  9992
2 66738  97.4194 248.8744 0000682 213.7784 146.3408 15.20701683 30799
FLOCK 4H-36
1 66739U 25276CB  26176.16108265  .00006575  00000+0  30397-3 0  9991
2 66739  97.4248 249.8656 0001004 304.3073  55.8067 15.20495512 31641
