ASTRA 1KR
1 29055U 06012A   26176.17230067  .00000129  00000+0  00000+0 0  9998
2 29055   0.4948  83.2477 0003671   7.0384 264.0693  1.00274795 45776
ASTRA 1L
1 31306U 07016A   26176.20754763 -.00000176  00000+0  00000+0 0  9996
2 31306   1.3427  81.5299 0005631  17.0991 224.9403  1.00270706 45060
ASTRA 4A
1 32299U 07057A   26176.16944066  .00000042  00000+0  00000+0 0  9996
2 32299   0.0221 313.6987 0002557 138.9700 246.4430  1.00270658 51723
ASTRA 1M
1 33436U 08057A   26176.17238735  .00000131  00000+0  00000+0 0  9990
2 33436   0.3173  82.6405 0005247  28.5929 243.5628  1.00276070 45814
SES-7 (PROTOSTAR 2)
1 34941U 09027A   26175.97608461 -.00000336  00000+0  00000+0 0  9992
2 34941   0.0327  63.0556 0000776 106.5511 203.1349  1.00270193 62709
SES-1
1 36516U 10016A   26175.22167929 -.00000107  00000+0  00000+0 0  9995
2 36516   0.0175 320.5913 0002863 128.7877 161.7985  1.00272015 59108
ASTRA 3B
1 36581U 10021A   26176.17316735  .00000146  00000+0  00000+0 0  9991
2 36581   1.4897  83.4557 0004083  13.4907 262.2241  1.00274588 58945
SES-3
1 37748U 11035A   26175.93428808 -.00000094  00000+0  00000+0 0  9994
2 37748   1.3472  83.0168 0002612   4.9457  58.4628  1.00272076 54674
ASTRA 1N
1 37775U 11041A   26174.93243215  .00000126  00000+0  00000+0 0  9992
2 37775   0.0769  33.8693 0006561  68.6280 164.4560  1.00271449 44599
SES-2
1 37809U 11049A   26175.22330484 -.00000188  00000+0  00000+0 0  9995
2 37809   0.0788  95.7342 0002926 355.4472 174.5786  1.00271344 54033
SES-4
1 38087U 12007A   26175.16610661 -.00000160  00000+0  00000+0 0  9990
2 38087   0.0254  27.8746 0002518  70.1458 212.1069  1.00276558 52297
SES-5
1 38652U 12036A   26175.17139330  .00000041  00000+0  00000+0 0  9997
2 38652   0.0460 316.5083 0002026 134.5743 247.9235  1.00272305 44526
ASTRA 2F
1 38778U 12051A   26176.17412068  .00000160  00000+0  00000+0 0  9998
2 38778   0.0865 258.6212 0002464 272.8703 192.7130  1.00275716 41215
SES-6
1 39172U 13026A   26176.16051396 -.00000252  00000+0  00000+0 0  9995
2 39172   0.0161   4.4481 0002825  93.6299 192.5158  1.00271378 47807
O3B FM5
1 39188U 13031A   26176.03560321 -.00000022  00000+0  00000+0 0  9992
2 39188   0.0974 341.7206 0002908  97.8255 280.4859  5.00115676237435
O3B FM4
1 39189U 13031B   26174.15613176 -.00000022  00000+0  00000+0 0  9991
2 39189   0.0419 346.4879 0005051  94.3599 279.2079  5.00115267237349
O3B FM2
1 39190U 13031C   26176.02064378 -.00000022  00000+0  00000+0 0  9995
2 39190   0.0366 341.6705 0002759 108.3570 270.0031  5.00116086237509
O3B PFM
1 39191U 13031D   26176.03476355 -.00000022  00000+0  00000+0 0  9999
2 39191   0.0674 350.4561 0005348  95.8705 273.7337  5.00116091237063
ASTRA 2E
1 39285U 13056A   26176.17412068  .00000160  00000+0  00000+0 0  9998
2 39285   0.0644 326.6890 0002550 134.1844 263.6147  1.00270118 46496
SES-8
1 39460U 13071A   26175.90487203 -.00000260  00000+0  00000+0 0  9995
2 39460   0.0361 276.9393 0003005 178.3481 238.5105  1.00270781 44506
ASTRA 5B
1 39617U 14011B   26176.17316735  .00000146  00000+0  00000+0 0  9997
2 39617   0.0553 321.7035 0002187 114.1665 283.2524  1.00271683 44747
O3B FM3
1 40079U 14038A   26174.90210031 -.00000022  00000+0  00000+0 0  9995
2 40079   0.0479 353.5501 0002333 155.4046 211.0579  5.00115741213386
O3B FM7
1 40080U 14038B   26176.04756098 -.00000022  00000+0  00000+0 0  9992
2 40080   0.0466 344.5823 0003753  81.6001 293.8561  5.00115731218270
O3B FM6
1 40081U 14038C   26175.07508707 -.00000022  00000+0  00000+0 0  9997
2 40081   0.0468 350.3198 0002642 101.3254 268.3839  5.00115795218173
O3B FM8
1 40082U 14038D   26174.92844640 -.00000022  00000+0  00000+0 0  9990
2 40082   0.0468 349.0794 0002764 105.3722 265.5788  5.00116095218288
O3B FM10
1 40348U 14083A   26175.75524384 -.00000022  00000+0  00000+0 0  9997
2 40348   0.0366 329.7129 0002659 122.3528 267.9638  5.00115365210273
O3B FM11
1 40349U 14083B   26175.96778113 -.00000022  00000+0  00000+0 0  9992
2 40349   0.0554 353.5554 0002661  83.4078 283.0657  5.00115612210309
O3B FM12
1 40350U 14083C   26175.99478861 -.00000022  00000+0  00000+0 0  9994
2 40350   0.0545 353.6526 0002526  97.7795 268.5960  5.00116001210314
O3B FM9
1 40351U 14083D   26175.82172764 -.00000022  00000+0  00000+0 0  9990
2 40351   0.0563 352.9071 0002698  98.9456 268.1773  5.00116020210453
ASTRA 2G
1 40364U 14089A   26176.17412068  .00000159  00000+0  00000+0 0  9993
2 40364   0.0500  18.9569 0004858  52.9573 292.2533  1.00272475 42042
SES-9
1 41380U 16013A   26175.03864247 -.00000338  00000+0  00000+0 0  9995
2 41380   0.0127 332.4630 0002404 110.6232 311.3192  1.00270318 37501
SES-10
1 42432U 17017A   26175.12657262 -.00000265  00000+0  00000+0 0  9995
2 42432   0.0218  41.8473 0002915  54.1049 154.9947  1.00269700 33825
SES-15
1 42709U 17026A   26175.21616350  .00000068  00000+0  00000+0 0  9995
2 42709   0.0192 334.4613 0000616  97.6725 148.8943  1.00268468  7503
SES-14
1 43175U 18012B   26175.16099325 -.00000271  00000+0  00000+0 0  9997
2 43175   0.0186  32.4949 0001101  59.2097 191.0635  1.00270948  7095
O3B FM15
1 43231U 18024A   26174.68919246 -.00000022  00000+0  00000+0 0  9996
2 43231   0.0517   1.5526 0002627  89.2535 269.2228  5.00115859151356
O3B FM16
1 43232U 18024B   26174.34174209 -.00000022  00000+0  00000+0 0  9992
2 43232   0.0515   6.1907 0002645  83.3089 270.5293  5.00116024151259
O3B FM14
1 43233U 18024C   26175.98167351 -.00000022  00000+0  00000+0 0  9994
2 43233   0.0503   6.9557 0002881  88.2809 264.7953  5.00115783151341
O3B FM13
1 43234U 18024D   26171.25057030 -.00000024  00000+0  00000+0 0  9995
2 43234   0.0547 261.1101 0023783  59.3674  39.3467  5.00080344151219
SES-12
1 43488U 18049A   26175.90487203 -.00000260  00000+0  00000+0 0  9990
2 43488   0.0123   7.4810 0000485 300.7127  25.6053  1.00271664 29494
O3B FM20
1 44112U 19020A   26173.80893610 -.00000022  00000+0  00000+0 0  9991
2 44112   0.0522 357.9628 0002423  85.4857 276.5775  5.00115633131852
O3B FM19
1 44113U 19020B   26176.03475090 -.00000022  00000+0  00000+0 0  9998
2 44113   0.0761 338.5355 0003888  95.7880 285.7186  5.00116038131832
O3B FM17
1 44114U 19020C   26174.91557476 -.00000022  00000+0  00000+0 0  9993
2 44114   0.0342   8.7534 0002594  82.7205 268.5546  5.00115608131867
O3B FM18
1 44115U 19020D   26176.06125213 -.00000022  00000+0  00000+0 0  9992
2 44115   0.0526 357.6354 0002774  96.3971 265.9984  5.00115421132040
SES-17
1 49332U 21095A   26175.12657271 -.00000265  00000+0  00000+0 0  9992
2 49332   0.0253  40.6398 0001120  47.6120 162.5006  1.00269964 17923
SES-22
1 52933U 22071A   26175.21425683  .00000112  00000+0  00000+0 0  9998
2 52933   0.0206 297.7919 0001583 146.0970 126.6234  1.00274564  7594
SES-20
1 53960U 22123A   26175.01919855 -.00000094  00000+0  00000+0 0  9994
2 53960   0.0244  65.4105 0002049  31.1571  79.4105  1.00269633 13605
SES-21
1 53961U 22123B   26174.43155243  .00000000  00000+0  00000+0 0  9999
2 53961   0.0387  19.7009 0001008  64.8583 211.4828  1.00271938  7276
O3B MPOWER F1
1 54755U 22174A   26175.09829279 -.00000022  00000+0  00000+0 0  9992
2 54755   0.0514 341.1180 0006488 124.5404 179.9972  5.00115017 65704
O3B MPOWER F2
1 54756U 22174B   26175.90589066 -.00000022  00000+0  00000+0 0  9990
2 54756   0.0472 340.6729 0005849 108.8948 270.4984  5.00115116 65822
SES-18
1 55970U 23038A   26173.95044758 -.00000097  00000+0  00000+0 0  9998
2 55970   0.0436 273.6534 0000462 237.3195 359.2062  1.00270943 12166
SES-19
1 55971U 23038B   26176.14182235  .00000097  00000+0  00000+0 0  9995
2 55971   0.0178 315.5858 0001928 139.3780  94.4572  1.00271896 12177
O3B MPOWER F4
1 56367U 23059A   26176.17003198 -.00000022  00000+0  00000+0 0  9990
2 56367   0.0632 353.3100 0007664 106.5132 260.2625  5.00115609 58997
O3B MPOWER F3
1 56368U 23059B   26176.00331302 -.00000022  00000+0  00000+0 0  9994
2 56368   0.0641 352.7875 0006719  99.1968 268.0918  5.00116560 55124
O3B MPOWER F5
1 58346U 23175A   26175.90440022 -.00000022  00000+0  00000+0 0  9999
2 58346   0.0499  10.9482 0005264 101.1170 247.9897  5.00116026 49811
O3B MPOWER F6
1 58347U 23175B   26175.00541826 -.00000022  00000+0  00000+0 0  9995
2 58347   0.0527   2.9200 0004493  86.1359 270.9944  5.00115929 48692
ASTRA 1P (SES-24)
1 60086U 24115A   26173.67709299  .00000122  00000+0  00000+0 0  9994
2 60086   0.0577 349.7608 0000629  22.1042 161.9436  1.00266587  7255
O3B MPOWER F7
1 62362U 24244A   26174.87190792 -.00000022  00000+0  00000+0 0  9991
2 62362   0.0674 346.9915 0006026 102.2611 270.8153  5.00115253 26862
O3B MPOWER F8
1 62363U 24244B   26175.03873706 -.00000022  00000+0  00000+0 0  9994
2 62363   0.0151 339.4895 0005899 102.7091 277.8672  5.00115156 21210
O3B MPOWER F9
1 64866U 25153A   26176.17149216 -.00000022  00000+0  00000+0 0  9992
2 64866   0.0593   8.6870 0006483 105.7992 245.5806  5.00115800 19956
O3B MPOWER F10
1 64867U 25153B   26174.93816444 -.00000022  00000+0  00000+0 0  9999
2 64867   0.0569   5.0038 0001944 248.9501 106.0235  5.00114946 22377
