LEMUR-1
1 40044U 14033AL  26176.04143103  .00001756  00000+0  20650-3 0  9995
2 40044  97.7884 325.6722 0049342  53.5333 307.0414 14.85272967646633
LEMUR-2-GREENBERG
1 42837U 17042N   26176.05857030  .00018719  00000+0  61566-3 0  9990
2 42837  97.3821 356.6481 0007784 344.2762  15.8237 15.31546172489599
LEMUR-2-ANDIS
1 42838U 17042P   26175.93932698  .00023927  00000+0  70234-3 0  9990
2 42838  97.3683 356.7406 0007561 342.5327  17.5655 15.35122839489648
LEMUR-2-MONSON
1 42839U 17042Q   26176.01898653  .00017170  00000+0  62624-3 0  9990
2 42839  97.4082 356.5692 0005549 335.7965  24.3013 15.28209666489363
LEMUR-2-FURIAUS
1 42840U 17042R   26176.05786398  .00019524  00000+0  66341-3 0  9993
2 42840  97.3771 354.5849 0007630  43.8967 316.2879 15.30484069489417
LEMUR-2-PETERG
1 42841U 17042S   26176.05876287  .00026813  00000+0  81094-3 0  9992
2 42841  97.3994   1.1031 0002715 319.7040  40.4001 15.34179839489647
LEMUR-2-DEMBITZ
1 42842U 17042T   26175.03147034  .00013832  00000+0  47138-3 0  9999
2 42842  97.3828 356.5944 0006155   4.7576 355.3722 15.30475147489398
LEMUR-2-ZACHARY
1 42845U 17042W   26176.06330052  .00057027  00000+0  98180-3 0  9997
2 42845  97.3596   7.8706 0002388 356.1191   4.0042 15.50897643490426
LEMUR-2-AMANDA-SVANTE
1 48269U 21034B   26176.18264424  .00040024  00000+0  11863-2 0  9992
2 48269  97.5760 254.6807 0003134 186.1710 173.9495 15.34732723282289
LEMUR-2-SPECIAL-K
1 48273U 21034F   26175.18113034  .00146578  00000+0  13957-2 0  9993
2 48273  97.5651 262.5537 0004934 222.5540 137.5338 15.66336131282781
LEMUR-2-EMBRIONOVIS
1 56970U 23084AQ  26176.14111030  .00016063  00000+0  43505-3 0  9992
2 56970  97.6292 320.6469 0007463 287.0247  73.0179 15.37730349168907
LEMUR-2-DEVERILL-M-T
1 57391U 23100F   26176.03220507  .00029313  00000+0  73258-3 0  9997
2 57391  99.4472 217.0572 0005649  23.0899 337.0593 15.40105639162453
LEMUR-2-BASS
1 58259U 23174D   26176.18587397  .00020799  00000+0  46742-3 0  9998
2 58259  97.3851 261.0108 0008107 137.7069 222.4805 15.43338546146591
LEMUR-2-JK0903EM1407
1 58336U 23174CJ  26175.94601567  .00031050  00000+0  51545-3 0  9992
2 58336  97.3928 266.6357 0005273  97.8712 262.3139 15.52042861146934
LEMUR-2-MJR092620
1 58340U 23174CN  26176.18989171  .00023006  00000+0  48626-3 0  9992
2 58340  97.3978 266.3672 0006915  94.4670 265.7368 15.45146260146886
LEMUR-2-NIMBUS2000
1 58899U 24022A   26176.13532410  .00026803  00000+0  66487-3 0  9992
2 58899  97.4109  26.2373 0010322  91.8550 268.3878 15.40290453133495
LEMUR-2-VALHALLA
1 58900U 24022B   26176.13336811  .00019558  00000+0  49244-3 0  9993
2 58900  97.4105  26.2216 0010813  88.0095 272.2389 15.39892857133492
LEMUR-2-CAEL
1 58903U 24022E   26176.07151397  .00020671  00000+0  49854-3 0  9998
2 58903  97.4088  27.1089 0009031  74.2440 285.9802 15.41208734133550
LEMUR-2-JOHNNYTRUONG
1 59146U 24043BA  26176.16441674  .00047787  00000+0  56768-3 0  9990
2 59146  97.5374 328.3649 0004900 152.4708 207.6809 15.61022815129282
LEMUR-2-TOMATOKECHUP
1 60471U 24149D   26176.18494964  .00012782  00000+0  36462-3 0  9998
2 60471  97.3802 258.2524 0002138 160.3945 199.7382 15.36183236103392
LEMUR-2-STELLA
1 60533U 24149BT  26175.16356701  .00009808  00000+0  57577-3 0  9995
2 60533  97.6735 257.6491 0001484  95.7079 264.4320 15.11934480101553
LEMUR-2-MARHISYAM
1 60536U 24149BW  26175.21263513  .00008476  00000+0  50589-3 0  9998
2 60536  97.6882 258.1549 0003459 104.9077 255.2536 15.11376723101540
LEMUR-2-AHMED-ASRAR
1 60576U 24149DN  26176.16598369  .00014037  00000+0  80077-3 0  9992
2 60576  97.7007 261.2370 0001135  24.8255 335.3030 15.12874742101777
LEMUR-2-LLOYD
1 60577U 24149DP  26176.19686653  .00011554  00000+0  72655-3 0  9994
2 60577  97.6745 257.3303 0005176 120.0067 240.1676 15.09376648101606
LEMUR-2-SQUIRRELCOMM
1 60578U 24149DQ  26176.15587704  .00006772  00000+0  45329-3 0  9992
2 60578  97.6718 257.0421 0005973  39.5945 320.5718 15.07235269101600
LEMUR-2-SIERRINI
1 60579U 24149DR  26176.16468600  .00013425  00000+0  80431-3 0  9993
2 60579  97.6846 258.7922 0006332 142.2598 217.9077 15.11099063101661
LEMUR-2-WILSON
1 62694U 25009CP  26176.19268509  .00001790  00000+0  16810-3 0  9990
2 62694  97.7026 254.5169 0003731  35.7287 324.4183 14.95197745 78550
LEMUR-2-STAR-FOX
1 62696U 25009CR  26176.15078679  .00007193  00000+0  54445-3 0  9994
2 62696  97.6954 257.7024 0004382  95.0100 265.1626 15.02602064 78751
LEMUR-2-ARIANNA
1 62699U 25009CU  26175.21691439  .00006424  00000+0  48720-3 0  9993
2 62699  97.6893 256.5439 0004758 101.2829 258.8931 15.02568487 78611
LEMUR-2-ALISIA
1 62706U 25009DB  26176.19223491  .00009275  00000+0  69573-3 0  9995
2 62706  97.6933 258.3064 0002696 183.6818 176.4387 15.02867622101362
LEMUR-2-ROUNDTRIPPER
1 62711U 25009DG  26176.21136731  .00010108  00000+0  73702-3 0  9990
2 62711  97.7250 258.8797 0005672 111.1214 249.0618 15.03909454 78832
LEMUR-2-MYNAMEISJEFF
1 62712U 25009DH  26175.21172882  .00006945  00000+0  50837-3 0  9995
2 62712  97.7293 258.2670 0004056 136.6635 223.4910 15.03888977 78688
LEMUR-2-LEIA-PHILIP
1 63246U 25052AN  26174.95291441  .00000776  00000+0  71815-4 0  9995
2 63246  97.6825  66.7900 0003350 188.0089 172.1080 14.97328919 69684
LEMUR-2-LIA-MARTIN
1 63248U 25052AQ  26174.95572482  .00003479  00000+0  30073-3 0  9997
2 63248  97.6878  67.2775 0003462 147.0255 213.1184 14.97842877 69690
LEMUR-2-DELOITTE-1
1 63259U 25052BB  26175.93518767  .00003356  00000+0  29170-3 0  9994
2 63259  97.6928  68.5720 0003291  80.1242 280.0352 14.97655753 69858
LEMUR-2-EMERSONROSE
1 63261U 25052BD  26176.16975041  .00004378  00000+0  36486-3 0  9998
2 63261  97.6878  69.3754 0001937  76.8592 283.2847 14.99131201 69938
LEMUR-2-MARACHE-FRAN
1 63262U 25052BE  26175.20577977  .00003846  00000+0  31271-3 0  9995
2 63262  97.6931  68.7567 0004704 355.1495   4.9682 15.00154270 69810
LEMUR-2-THEFALCONER
1 63264U 25052BG  26176.16318257  .00003857  00000+0  33639-3 0  9999
2 63264  97.6849  68.4076 0001694  15.5300 344.5974 14.97431914 69881
LEMUR-2-UNTITLED-SC
1 63351U 25061A   26175.16290778  .00003002  00000+0  17082-3 0  9998
2 63351  97.5637 150.4737 0017157 238.1119 121.8443 15.13515527 68642
LEMUR-2-ESPERANZA
1 63352U 25061B   26174.87518465  .00003141  00000+0  17814-3 0  9999
2 63352  97.5644 150.2831 0016770 238.3402 121.6194 15.13605396 68602
LEMUR-2-KREMPEL-BRO2
1 63353U 25061C   26175.89158096  .00003623  00000+0  20227-3 0  9990
2 63353  97.5689 151.8356 0017886 226.5674 133.4070 15.14051235 68770
LEMUR-2-THERMORAPTOR
1 63354U 25061D   26176.20367536  .00004022  00000+0  22362-3 0  9994
2 63354  97.5694 152.2230 0017666 224.2419 135.7401 15.14135220 68827
LEMUR-2-NEUROSPICY
1 63355U 25061E   26175.91041037  .00003327  00000+0  18522-3 0  9997
2 63355  97.5622 151.5515 0015394 228.6975 131.2932 15.14248167 68788
LEMUR-2-TILLINFINITY
1 63356U 25061F   26176.20692029  .00004052  00000+0  22091-3 0  9996
2 63356  97.5606 152.1424 0016936 215.0328 144.9791 15.14835923 68856
LEMUR-2-KREMPEL-BRO1
1 63357U 25061G   26176.18141840  .00003585  00000+0  19691-3 0  9996
2 63357  97.5608 152.0309 0017544 216.6088 143.3946 15.14641699 68845
LEMUR-2-LANGER2SPACE
1 63358U 25061H   26174.68973493  .00002963  00000+0  16498-3 0  9998
2 63358  97.5614 150.3594 0015231 231.4454 128.5414 15.14324782 68603
LEMUR-2-BALTO
1 63395U 25052BH  26175.19051158  .00005229  00000+0  42328-3 0  9990
2 63395  97.6916  68.7172 0006740  39.4690 320.7024 15.00154475 69819
LEMUR-2-KRISH
1 64561U 25135AK  26174.76194573  .00003067  00000+0  27679-3 0  9999
2 64561  97.7746 289.5933 0001338  96.2245 263.9128 14.96255561 54909
LEMUR-2-HUBBLE-4
1 64565U 25135AP  26174.90453204  .00001025  00000+0  10350-3 0  9998
2 64565  97.7704 288.7289 0000908 250.8554 109.2568 14.93213733 54873
LEMUR-2-SEJONG-2
1 64586U 25135BL  26176.19371785  .00005210  00000+0  46058-3 0  9991
2 64586  97.7687 291.1593 0002968 307.3654  52.7297 14.96753315 55149
LEMUR-2-HUBBLE-5
1 64840U 25135BT  26176.12679769  .00001870  00000+0  18006-3 0  9990
2 64840  97.7722 290.5835 0004400 323.9622  36.1300 14.94157768 55099
LEMUR-2-KARENDARRELL
1 64841U 25135BU  26175.05514209  .00007056  00000+0  56854-3 0  9994
2 64841  97.7676 291.2515 0010282 176.0148 184.1159 15.00194717 55040
LEMUR-2-LUCILLE-ROSE
1 65403U 25135BV  26174.56178287  .00004901  00000+0  39614-3 0  9997
2 65403  97.7751 290.7858 0011936 259.1302 100.8578 15.00216421 49595
LEMUR-2-AFFIE-WAUWIE
1 66295U 25248C   26174.13886335  .00017919  00000+0  66599-3 0  9990
2 66295  45.3929  82.7389 0007314 125.1240 235.0336 15.27345678 35502
LEMUR-2-DEANANDMAEVE
1 66678U 25276N   26175.16219230  .00005755  00000+0  27181-3 0  9993
2 66678  97.4212 248.5221 0005008 349.3175  10.7953 15.19804452 31478
LEMUR-2-STAS-GORBUK
1 66686U 25276W   26176.16616464  .00006199  00000+0  29549-3 0  9996
2 66686  97.4246 249.5637 0004259 346.6217  13.4904 15.19455571 31627
LEMUR-2-TEODOR
1 66768U 25276DG  26176.14119977  .00006553  00000+0  29745-3 0  9994
2 66768  97.4151 249.7856 0002347 108.7549 251.3942 15.21127932 31657
LEMUR-2-LAILA
1 66776U 25276DQ  26176.17972934  .00006327  00000+0  28546-3 0  9993
2 66776  97.4174 249.9492 0002635 124.2018 235.9468 15.21351203 31665
LEMUR-2-CELIJO-SB-PK
1 66781U 25276DW  26176.17490176  .00007231  00000+0  58444-3 0  9997
2 66781  97.5235 246.6902 0008248 113.4299 246.7793 15.00063981 23827
LEMUR-2-FINNIAN
1 66782U 25276DX  26175.14942811  .00004572  00000+0  36763-3 0  9997
2 66782  97.5309 245.9209 0008701  68.8843 291.3311 15.00446823 21048
LEMUR-2-STARLIGHT
1 66783U 25276DY  26176.17996615  .00007273  00000+0  60143-3 0  9993
2 66783  97.5246 246.5457 0014772 105.2884 254.9973 14.99120149 31392
LEMUR-2-TARTIFLETTE
1 66784U 25276DZ  26176.17832302  .00006043  00000+0  50060-3 0  9997
2 66784  97.5250 246.5516 0013726 112.1616 248.1065 14.99135685 31390
LEMUR-2-VUKASIN
1 66785U 25276EA  26176.16506182  .00001440  00000+0  11907-3 0  9994
2 66785  97.5300 246.8556 0005344 103.9516 256.2303 15.00420110 31341
LEMUR-2-HOTSPUR-TOM
1 66786U 25276EB  26176.17144154  .00006418  00000+0  53249-3 0  9998
2 66786  97.5247 246.5245 0014883 104.5286 255.7589 14.99035144 31327
LEMUR-2-MYRA
1 66787U 25276EC  26176.13040787  .00008265  00000+0  66072-3 0  9992
2 66787  97.5219 246.7508 0017520 115.7874 244.5160 15.00347696 31400
LEMUR-2 FIKRETDENGIZ
1 67363U 26004A   26176.00022828  .00004188  00000+0  45755-3 0  9990
2 67363  97.8016 174.4381 0010484 111.0764 249.1575 14.88374851 24449
LEMUR-2-MARIO-SOUSA
1 67365U 26004C   26175.98284030  .00004272  00000+0  46439-3 0  9997
2 67365  97.7987 174.4168 0010060 111.9509 248.2778 14.88568998 24459
LEMUR-2 CALLUM-K-J
1 67366U 26004D   26175.99870178  .00004816  00000+0  52597-3 0  9999
2 67366  97.8014 174.4428 0010547 107.6885 252.5484 14.88309865 24458
LEMUR-2-SONNENBLUME
1 67367U 26004E   26175.24278858  .00002148  00000+0  23778-3 0  9990
2 67367  97.7984 173.6698 0009565 115.3972 244.8236 14.88346819 24342
LEMUR-2-WOBLER
1 67368U 26004F   26175.97472604  .00003493  00000+0  38081-3 0  9993
2 67368  97.8040 174.5203 0009951 104.4876 255.7446 14.88564181 24450
LEMUR-2-GRAM-E-SUE
1 67370U 26004H   26175.96565375  .00002176  00000+0  23998-3 0  9991
2 67370  97.7975 174.3970 0008666 114.7177 245.4943 14.88501650 24458
LEMUR-2-KATIE
1 67387U 26004AA  26176.01182170  .00003813  00000+0  40011-3 0  9998
2 67387  97.8034 174.9271 0004767  76.9229 283.2520 14.90091362 24478
LEMUR-2-HCS-BAZUS
1 67388U 26004AB  26175.94355572  .00005938  00000+0  61912-3 0  9991
2 67388  97.8022 174.8399 0004262  75.6154 284.5536 14.90136625 24461
LEMUR-2-DELOITTE-3
1 68471U 26067BH  26176.12707448  .00001891  00000+0  19386-3 0  9990
2 68471  97.7579 134.1711 0005165  45.7953 314.3689 14.91612609 12916
LEMUR-2-JULIA-JOEL
1 68476U 26067BN  26175.11623688  .00003930  00000+0  38552-3 0  9998
2 68476  97.7564 133.3243 0000984 182.7648 177.3566 14.92786744 12760
LEMUR-2-PEGGY-2004
1 68479U 26067BR  26175.12354848  .00004619  00000+0  45188-3 0  9999
2 68479  97.7543 133.2997 0001100 124.6593 235.4730 14.92806763 12763
LEMUR-2-IRINA
1 68480U 26067BS  26175.16991746  .00003394  00000+0  33219-3 0  9990
2 68480  97.7626 133.4726 0002073 232.1070 127.9962 14.92970243 12772
LEMUR-2-SEJONG-3
1 68482U 26067BU  26175.16999653  .00003464  00000+0  33883-3 0  9992
2 68482  97.7572 133.4180 0002170 195.8066 164.3086 14.92974702 12772
LEMUR-2-CLARA
1 68483U 26067BV  26176.12168666  .00003297  00000+0  32437-3 0  9990
2 68483  97.7640 134.3981 0001241 258.0935 102.0145 14.92785702 12914
LEMUR-2-CARROLLEMO
1 68489U 26067CB  26176.11576286  .00003504  00000+0  35387-3 0  9994
2 68489  97.7534 134.1412 0003745  62.8526 297.3075 14.91685366 12900
LEMUR-2-DELOITTE-2
1 68491U 26067CD  26176.12484206  .00006338  00000+0  63737-3 0  9996
2 68491  97.7559 134.1578 0004205  49.7741 310.3845 14.91560300 12909
LEMUR-2-EMARCHIA
1 68492U 26067CE  26175.11501493  .00004778  00000+0  47962-3 0  9991
2 68492  97.7561 133.1751 0005021  51.9106 308.2565 14.91753626 12755
LEMUR-2-POLO-11
1 68493U 26067CF  26176.12019874  .00005819  00000+0  58273-3 0  9995
2 68493  97.7650 134.2559 0004337  26.9486 333.1957 14.91765324 12902
