VIASAT-1
1 37843U 11059A   26175.21893684 -.00000016  00000+0  00000+0 0  9999
2 37843   0.0129 339.4390 0002563 114.3187 142.3193  1.00271095 47392
VIASAT-2
1 42740U 17029A   26175.22767060 -.00000258  00000+0  00000+0 0  9991
2 42740   0.0153 301.1892 0000354 112.3888 230.8800  1.00272341 33271
VIASAT-3 F1
1 56370U 23060A   26174.86765225  .00000000  00000+0  00000+0 0  9991
2 56370   0.0224 357.1203 0001061  89.3527  48.9604  1.00268828 11507
VIASAT-3 F2
1 66454U 25261A   26175.22611060 -.00000226  00000+0  00000+0 0  9999
2 66454   0.0077 239.3575 0000421 289.1652 106.2799  1.00268591  2867
VIASAT-3 F3
1 68893U 26096A   26175.97313793 -.00000205  00000+0  00000+0 0  9996
2 68893   0.8015 279.9272 0327604 181.9118 258.2795  1.04674072   693
